OBJECT_NAME,OBJECT_ID,EPOCH,MEAN_MOTION,ECCENTRICITY,INCLINATION,RA_OF_ASC_NODE,ARG_OF_PERICENTER,MEAN_ANOMALY,EPHEMERIS_TYPE,CLASSIFICATION_TYPE,NORAD_CAT_ID,ELEMENT_SET_NO,REV_AT_EPOCH,BSTAR,MEAN_MOTION_DOT,MEAN_MOTION_DDOT
ALOS-2,2014-029A,2026-07-22T05:46:29.989632,14.79471039,.00015926,97.9224,299.9036,94.1198,266.0195,0,U,39766,999,65676,.15916256E-3,.1137E-4,0
KAZEOSAT 2,2014-033A,2026-07-22T06:10:02.361792,14.85507150,.00079118,97.5401,41.0138,193.2893,166.8116,0,U,40010,999,65416,.93172399E-4,.755E-5,0
HODOYOSHI-4,2014-033B,2026-07-22T06:24:31.798080,14.88199751,.00233463,97.5468,26.3993,185.3933,174.7036,0,U,40011,999,65402,.13887778E-3,.1234E-4,0
DEIMOS-2,2014-033D,2026-07-22T06:48:55.261152,14.93811745,.0001545,97.5785,76.5325,103.4365,256.7028,0,U,40013,999,64296,.124403E-3,.1265E-4,0
HODOYOSHI-3,2014-033F,2026-07-22T00:16:23.937024,14.85447821,.00315218,97.6454,4.6584,238.4594,121.3542,0,U,40015,999,65279,.11634673E-3,.959E-5,0
SPOT 7,2014-034A,2026-07-22T07:35:11.336352,14.60984244,.00016501,98.0606,264.8993,95.0321,265.1068,0,U,40053,999,64226,.32299113E-4,.113E-5,0
SKYSAT-B,2014-037D,2026-07-21T14:53:10.114944,14.88102443,.00060203,98.3858,163.5543,153.0763,207.0765,0,U,40072,999,65108,.10248307E-3,.881E-5,0
WORLDVIEW-3 (WV-3),2014-048A,2026-07-22T06:31:30.612576,14.85071932,.00018026,97.8550,277.6185,145.1392,214.9941,0,U,40115,999,64711,.76585678E-4,.601E-5,0
GAOFEN-2,2014-049A,2026-07-22T07:27:59.539392,14.80931490,.00086284,98.0088,267.4816,115.0680,245.1428,0,U,40118,999,64443,-.10910215E-4,-.138E-5,0
YAOGAN-21,2014-053A,2026-07-22T07:05:33.743616,15.26826199,.00068255,97.1462,242.0310,342.2001,17.8998,0,U,40143,999,66031,.29544212E-3,.7724E-4,0
YAOGAN-22,2014-063A,2026-07-22T00:24:33.955488,13.15531649,.00069015,100.7771,354.8755,111.2676,248.9173,0,U,40275,999,56439,.30184384E-4,-.35E-6,0
ASNARO,2014-070A,2026-07-22T06:09:41.287104,15.19444802,.00046472,97.3437,278.4260,73.2514,286.9231,0,U,40298,999,64933,.25574042E-3,.5355E-4,0
YAOGAN-24,2014-072A,2026-07-22T07:55:50.697696,14.76122339,.00151717,98.1535,340.9695,147.5418,212.6728,0,U,40310,999,62890,.13939493E-4,.43E-6,0
CBERS 4,2014-079A,2026-07-22T07:21:03.062016,14.35517018,.00005601,98.3510,259.0326,78.3355,281.7894,0,U,40336,999,60899,-.2533753E-5,-.5E-6,0
YAOGAN-26,2014-088A,2026-07-22T07:09:01.633248,15.48662996,.00010109,97.0657,202.7196,272.2802,87.8334,0,U,40362,999,64313,.57671014E-3,.30828E-3,0
SMAP,2015-003A,2026-07-22T05:23:59.040960,14.63393289,.00016331,98.1287,209.8250,92.9290,267.2099,0,U,40376,999,61274,.69905441E-4,.314E-5,0
KOMPSAT-3A,2015-014A,2026-07-22T06:01:59.420352,15.55756381,.00551713,97.6901,197.2262,50.7085,309.9042,0,U,40536,999,62726,.46889932E-3,.34597E-3,0
SENTINEL-2A,2015-028A,2026-07-22T07:40:13.842624,14.30815810,.00013258,98.5668,277.6702,96.7713,263.3620,0,U,40697,999,57875,.26919761E-4,.27E-6,0
GAOFEN-8,2015-030A,2026-07-22T06:50:32.550144,15.47131494,.00097263,97.6904,38.7922,74.4558,285.7764,0,U,40701,999,61687,.35587028E-3,.17998E-3,0
CARBONITE 1 (CBNT-1),2015-032D,2026-07-22T07:41:32.990208,14.83681830,.00145524,97.6535,19.9209,173.1139,187.0278,0,U,40718,999,59455,.19226557E-3,.154E-4,0
YAOGAN-27,2015-040A,2026-07-22T07:15:09.869184,13.16073973,.00087418,100.1184,188.1643,129.3023,230.8867,0,U,40878,999,52228,.10872246E-2,.371E-5,0
GAOFEN-9 01,2015-047A,2026-07-22T06:50:35.134368,14.82944905,.00279407,97.6262,237.3833,27.9853,332.2856,0,U,40894,999,58539,.10750499E-3,.827E-5,0
YAOGAN-28,2015-064A,2026-07-22T07:13:51.193344,15.27824534,.00118961,97.3113,340.8662,71.0228,289.2300,0,U,41026,999,59604,.2809427E-3,.7576E-4,0
YAOGAN-29,2015-069A,2026-07-22T07:52:50.284992,14.83111092,.00001078,98.0024,232.0148,76.3009,283.8216,0,U,41038,999,57583,.48454014E-4,.341E-5,0
KENT RIDGE 1,2015-077B,2026-07-21T17:42:19.497024,15.23308502,.00082704,14.9809,8.9982,7.0566,352.9872,0,U,41167,999,58637,.89160318E-4,.2943E-4,0
GAOFEN-4,2015-083A,2026-07-21T14:23:34.672704,1.00270335,.00041624,0.4439,83.8614,121.1097,55.9718,0,U,41194,999,3887,0,-.333E-5,0
JASON-3,2016-002A,2026-07-22T06:21:26.095968,12.87628958,.00081278,66.0415,52.0881,270.2738,89.7350,0,U,41240,999,49176,.83273906E-4,-.41E-6,0
SENTINEL-3A,2016-011A,2026-07-22T06:45:19.526400,14.26741184,.00012965,98.6231,270.1578,88.5490,271.5839,0,U,41335,999,54306,.43016085E-4,.6E-6,0
ZIYUAN 3-02 (ZY 3-02),2016-033A,2026-07-22T07:30:34.416576,15.21151645,.00134831,97.3819,278.4115,163.2247,196.9438,0,U,41556,999,56332,.26963504E-3,.5951E-4,0
CARTOSAT-2C,2016-040A,2026-07-22T05:33:59.334336,15.19300409,.00088333,97.4463,262.7240,23.1687,336.9944,0,U,41599,999,55903,.22471117E-3,.4679E-4,0
