ALOS-2                  
1 39766U 14029A   26203.24062488  .00001137  00000+0  15916-3 0  9990
2 39766  97.9224 299.9036 0001592  94.1198 266.0195 14.79471039656767
KAZEOSAT 2              
1 40010U 14033A   26203.25697178  .00000755  00000+0  93172-4 0  9996
2 40010  97.5401  41.0138 0007911 193.2893 166.8116 14.85507150654160
HODOYOSHI-4             
1 40011U 14033B   26203.26703470  .00001234  00000+0  13888-3 0  9999
2 40011  97.5468  26.3993 0023346 185.3933 174.7036 14.88199751654027
DEIMOS-2                
1 40013U 14033D   26203.28397293  .00001265  00000+0  12440-3 0  9992
2 40013  97.5785  76.5325 0001545 103.4365 256.7028 14.93811745642966
HODOYOSHI-3             
1 40015U 14033F   26203.01138816  .00000959  00000+0  11635-3 0  9993
2 40015  97.6454   4.6584 0031521 238.4594 121.3542 14.85447821652792
SPOT 7                  
1 40053U 14034A   26203.31610343  .00000113  00000+0  32299-4 0  9991
2 40053  98.0606 264.8993 0001650  95.0321 265.1068 14.60984244642266
SKYSAT-B                
1 40072U 14037D   26202.62025596  .00000881  00000+0  10248-3 0  9999
2 40072  98.3858 163.5543 0006020 153.0763 207.0765 14.88102443651088
WORLDVIEW-3 (WV-3)      
1 40115U 14048A   26203.27188209  .00000601  00000+0  76586-4 0  9990
2 40115  97.8550 277.6185 0001802 145.1392 214.9941 14.85071932647118
GAOFEN-2                
1 40118U 14049A   26203.31110578 -.00000138  00000+0 -10910-4 0  9999
2 40118  98.0088 267.4816 0008628 115.0680 245.1428 14.80931490644434
YAOGAN-21               
1 40143U 14053A   26203.29552944  .00007724  00000+0  29544-3 0  9994
2 40143  97.1462 242.0310 0006825 342.2001  17.8998 15.26826199660315
YAOGAN-22               
1 40275U 14063A   26203.01705967 -.00000035  00000+0  30184-4 0  9998
2 40275 100.7771 354.8755 0006901 111.2676 248.9173 13.15531649564399
ASNARO                  
1 40298U 14070A   26203.25672786  .00005355  00000+0  25574-3 0  9994
2 40298  97.3437 278.4260 0004647  73.2514 286.9231 15.19444802649334
YAOGAN-24               
1 40310U 14072A   26203.33044789  .00000043  00000+0  13939-4 0  9998
2 40310  98.1535 340.9695 0015171 147.5418 212.6728 14.76122339628903
CBERS 4                 
1 40336U 14079A   26203.30628544 -.00000050  00000+0 -25338-5 0  9994
2 40336  98.3510 259.0326 0000560  78.3355 281.7894 14.35517018608999
YAOGAN-26               
1 40362U 14088A   26203.29793557  .00030828  00000+0  57671-3 0  9995
2 40362  97.0657 202.7196 0001010 272.2802  87.8334 15.48662996643139
SMAP                    
1 40376U 15003A   26203.22498890  .00000314  00000+0  69905-4 0  9994
2 40376  98.1287 209.8250 0001633  92.9290 267.2099 14.63393289612740
KOMPSAT-3A              
1 40536U 15014A   26203.25138218  .00034597  00000+0  46890-3 0  9999
2 40536  97.6901 197.2262 0055171  50.7085 309.9042 15.55756381627261
SENTINEL-2A             
1 40697U 15028A   26203.31960466  .00000027  00000+0  26920-4 0  9991
2 40697  98.5668 277.6702 0001325  96.7713 263.3620 14.30815810578750
GAOFEN-8                
1 40701U 15030A   26203.28509896  .00017998  00000+0  35587-3 0  9995
2 40701  97.6904  38.7922 0009726  74.4558 285.7764 15.47131494616873
CARBONITE 1 (CBNT-1)    
1 40718U 15032D   26203.32052072  .00001540  00000+0  19227-3 0  9998
2 40718  97.6535  19.9209 0014552 173.1139 187.0278 14.83681830594552
YAOGAN-27               
1 40878U 15040A   26203.30219756  .00000371  00000+0  10872-2 0  9993
2 40878 100.1184 188.1643 0008741 129.3023 230.8867 13.16073973522288
GAOFEN-9 01             
1 40894U 15047A   26203.28512887  .00000827  00000+0  10750-3 0  9998
2 40894  97.6262 237.3833 0027940  27.9853 332.2856 14.82944905585399
YAOGAN-28               
1 41026U 15064A   26203.30128696  .00007576  00000+0  28094-3 0  9997
2 41026  97.3113 340.8662 0011896  71.0228 289.2300 15.27824534596042
YAOGAN-29               
1 41038U 15069A   26203.32835978  .00000341  00000+0  48454-4 0  9991
2 41038  98.0024 232.0148 0000107  76.3009 283.8216 14.83111092575832
KENT RIDGE 1            
1 41167U 15077B   26202.73772566  .00002943  00000+0  89160-4 0  9999
2 41167  14.9809   8.9982 0008270   7.0566 352.9872 15.23308502586373
GAOFEN-4                
1 41194U 15083A   26202.59970686 -.00000333  00000+0  00000+0 0  9996
2 41194   0.4439  83.8614 0004162 121.1097  55.9718  1.00270335 38877
JASON-3                 
1 41240U 16002A   26203.26488537 -.00000041  00000+0  83274-4 0  9999
2 41240  66.0415  52.0881 0008127 270.2738  89.7350 12.87628958491761
SENTINEL-3A             
1 41335U 16011A   26203.28147600  .00000060  00000+0  43016-4 0  9999
2 41335  98.6231 270.1578 0001296  88.5490 271.5839 14.26741184543060
ZIYUAN 3-02 (ZY 3-02)   
1 41556U 16033A   26203.31289834  .00005951  00000+0  26964-3 0  9994
2 41556  97.3819 278.4115 0013483 163.2247 196.9438 15.21151645563322
CARTOSAT-2C             
1 41599U 16040A   26203.23193674  .00004679  00000+0  22471-3 0  9991
2 41599  97.4463 262.7240 0008833  23.1687 336.9944 15.19300409559037
